GLOBALSTAR M080 [+]     
1 38041U 11080B   24059.18282003 -.00000109  00000+0 -27287-4 0  9991
2 38041  52.0065  55.9996 0000726  75.3495   4.8591 12.62269438562943
GLOBALSTAR M082 [+]     
1 38042U 11080C   24059.18142481 -.00000095  00000+0  51170-4 0  9998
2 38042  52.0102  11.4003 0000280 190.1059 184.1162 12.62266160563686
GLOBALSTAR M090 [+]     
1 38044U 11080E   24059.12829498 -.00000091  00000+0  68914-4 0  9994
2 38044  51.9914   5.9816 0000193  86.9471 286.7128 12.62266427563665
GLOBALSTAR M086 [+]     
1 38045U 11080F   24059.15470259 -.00000090  00000+0  74281-4 0  9998
2 38045  51.9925   6.4165 0001094  10.8477   2.2055 12.62267587563673
GLOBALSTAR M097 [+]     
1 39072U 13005A   24058.86145075 -.00000083  00000+0  11869-3 0  9994
2 39072  52.0037 281.3758 0000602  64.4639 295.6289 12.62261191510787
GLOBALSTAR M093 [+]     
1 39073U 13005B   24058.99327871 -.00000087  00000+0  92770-4 0  9990
2 39073  51.9796 275.0373 0000558  58.1384 301.9536 12.62261614510874
